CUTE-1 (CO-55)          
1 27844U 03031E   24305.95194001  .00001794  00000+0  80595-3 0  9995
2 27844  98.6789 311.1200 0010795 105.7525 254.4845 14.23593445107278
CUBESAT XI-IV (CO-57)   
1 27848U 03031J   24306.50429719  .00001516  00000+0  69208-3 0  9998
2 27848  98.6821 311.8277 0010555 119.3149 240.9085 14.22989823107114
CUBESAT XI-V            
1 28895U 05043F   24305.87272587  .00008440  00000+0  14406-2 0  9996
2 28895  98.2208  82.1717 0014300 286.3772  73.5860 14.69131834 14512
CUTE-1.7+APD II (CO-65) 
1 32785U 08021C   24306.47997674  .00019112  00000+0  15417-2 0  9997
2 32785  97.7741 271.0549 0008756 226.8560 133.1931 14.99888679896109
AAUSAT-II               
1 32788U 08021F   24305.93176109  .00088613  00000+0  29745-2 0  9993
2 32788  97.6042 287.7202 0008278  72.2165 287.9978 15.30481666899235
CANX-2                  
1 32790U 08021H   24305.83073465  .00015073  00000+0  12826-2 0  9998
2 32790  97.7841 269.0083 0010060 235.3146 124.7129 14.97870478895809
SEEDS II (CO-66)        
1 32791U 08021J   24306.19612051  .00038060  00000+0  23826-2 0  9992
2 32791  97.7073 277.1715 0004217 166.7736 193.3604 15.09268631897222
SWISSCUBE               
1 35932U 09051B   24305.59284349  .00005751  00000+0  12064-2 0  9997
2 35932  98.4497 191.5612 0005707 257.4294 102.6267 14.60049076802452
BEESAT-1                
1 35933U 09051C   24306.17615974  .00005800  00000+0  12271-2 0  9990
2 35933  98.4428 192.8754 0004117 272.0149  88.0579 14.59658044802681
ITUPSAT1                
1 35935U 09051E   24306.15435901  .00005250  00000+0  11389-2 0  9998
2 35935  98.4527 192.5588 0006468 279.1950  80.8517 14.58543583802259
TISAT 1                 
1 36799U 10035E   24306.40788248  .00036450  00000+0  23894-2 0  9994
2 36799  98.0698 202.0841 0005623 110.8957 249.2872 15.07580804777890
AEROCUBE 4.5A           
1 38767U 12048K   24306.24290299  .00065911  00000+0  27483-2 0  9995
2 38767  64.6555 231.4118 0110672 333.9542  25.6037 15.17811072281209
AEROCUBE 4.5B           
1 38768U 12048L   24306.28352774  .00148521  00000+0  28315-2 0  9991
2 38768  64.6468 143.3122 0074033 319.2629  40.2985 15.44437821282439
STRAND-1                
1 39090U 13009E   24306.45192664  .00001969  00000+0  68650-3 0  9998
2 39090  98.3790 131.0022 0008403 196.3019 163.7899 14.36409469611964
BRITE-AUSTRIA           
1 39091U 13009F   24305.97027759  .00001237  00000+0  43979-3 0  9992
2 39091  98.3840 129.8090 0009712 206.2209 153.8487 14.36032589611909
NEE-01 PEGASO           
1 39151U 13018B   24306.31361035  .00013592  00000+0  14865-2 0  9994
2 39151  98.0513  65.0601 0013638 314.5839  45.4263 14.87889362622357
ESTCUBE 1               
1 39161U 13021C   24306.11809239  .00008857  00000+0  12367-2 0  9993
2 39161  97.8134   8.4187 0009628 140.5453 219.6461 14.77852317617344
POPACS 1                
1 39268U 13055D   24306.47780669  .00079293  43094-6  11335-2 0  9995
2 39268  80.9781 351.8842 0346232   6.2089 354.3254 15.09061914582589
POPACS 2                
1 39269U 13055E   24305.66834395  .00029705  00000+0  65697-3 0  9999
2 39269  80.9979  90.5206 0523803 264.7051  89.4202 14.63448236575510
POPACS 3                
1 39270U 13055F   24306.51484594  .00018037  00000+0  47568-3 0  9991
2 39270  81.0035 145.0619 0611951  57.1838 308.6764 14.41186164573411
ZACUBE-1 (TSHEPISOSAT)  
1 39417U 13066B   24306.40572240  .00021291  00000+0  20403-2 0  9994
2 39417  97.7507 259.6555 0050104  66.6907 293.9573 14.92202232592025
WNISAT-1                
1 39423U 13066H   24306.50192426  .00004124  00000+0  78481-3 0  9992
2 39423  97.6658 129.7598 0166962 298.1396  60.3018 14.56015098580621
TRITON-1                
1 39427U 13066M   24306.49092804  .00015737  00000+0  21008-2 0  9997
2 39427  97.8380 220.1776 0099549   0.6139 359.5175 14.76199513586642
DELFI-N3XT              
1 39428U 13066N   24306.19005755  .00036939  00000+0  42674-2 0  9993
2 39428  97.8344 221.1940 0095227   4.9408 355.2722 14.82209486586539
GOMX-1                  
1 39430U 13066Q   24306.48744156  .00008022  00000+0  12905-2 0  9999
2 39430  97.7085 172.5274 0136525 175.1487 185.1078 14.65705452583140
CUBEBUG-2 (LO-74)       
1 39440U 13066AA  24305.80664194  .00013128  00000+0  14461-2 0  9990
2 39440  97.8252 246.8160 0066112 185.0311 175.0248 14.86057632588603
NEE-02 KRYSAOR          
1 39441U 13066AB  24305.79274694  .00008698  00000+0  10565-2 0  9998
2 39441  97.8333 242.0718 0070846 210.1327 149.5803 14.81955973588150
FUNCUBE-1 (AO-73)       
1 39444U 13066AE  24305.86594169  .00024939  00000+0  21742-2 0  9996
2 39444  97.7356 262.6769 0046847  47.4064 313.1094 14.95994216590516
UWE-3                   
1 39446U 13066AG  24305.82708686  .00014393  00000+0  14911-2 0  9998
2 39446  97.7965 252.9694 0058975 128.1152 232.5402 14.88827945589019
BRITE-CA1 (TORONTO)     
1 40020U 14033L   24306.32947288  .00004867  00000+0  77128-3 0  9997
2 40020  97.8972  78.8636 0082058  14.9173 345.4426 14.70397371555124
DUCHIFAT-1              
1 40021U 14033M   24306.50805380  .00044474  00000+0  24027-2 0  9991
2 40021  98.0997 298.1220 0011860  10.6569 349.4910 15.14499784564858
NANOSATC-BR1            
1 40024U 14033Q   24305.91347254  .00033810  00000+0  21431-2 0  9997
2 40024  98.0776 284.2914 0008432  73.9923 286.2232 15.08822343564342
QB50P1                  
1 40025U 14033R   24305.83571630  .00024565  00000+0  17821-2 0  9991
2 40025  98.0604 271.5745 0015109  81.6956 278.5981 15.03814344563896
QB50P2                  
1 40032U 14033Y   24305.86570030  .00022835  00000+0  17274-2 0  9995
2 40032  98.0175 262.3274 0011593  39.8829 320.3244 15.02284287563163
PERSEUS-M2              
1 40037U 14033AD  24306.46268421  .00007272  00000+0  72397-3 0  9991
2 40037  97.9345 237.8836 0014468 100.2902 259.9948 14.91854340562780
PERSEUS-M1              
1 40039U 14033AF  24306.37122172  .00009219  00000+0  91918-3 0  9998
2 40039  97.9122 233.4428 0014413  99.6334 260.6514 14.91716789562630
POLYITAN-1              
1 40042U 14033AJ  24305.85590982  .00037530  00000+0  24063-2 0  9995
2 40042  98.0860 276.3700 0014091  42.7134 317.5186 15.08322102563395
TIGRISAT                
1 40043U 14033AK  24305.87747209  .00010593  00000+0  13529-2 0  9999
2 40043  97.7094 102.9720 0053094 217.0429 142.7115 14.80598207557974
AEROCUBE 6A             
1 40045U 14033AM  24306.45412070  .00026111  00000+0  28534-2 0  9996
2 40045  97.6764 114.8903 0047078 189.2560 170.7794 14.87010792558403
AEROCUBE 6B             
1 40046U 14033AN  24306.20426201  .00028831  00000+0  30779-2 0  9996
2 40046  97.6733 113.4856 0045854 184.6780 175.4015 14.87974398558572
CANX-4                  
1 40055U 14034C   24306.50968798  .00005452  00000+0  74376-3 0  9998
2 40055  98.3813 147.0050 0014339 110.0662 250.2093 14.79016193556874
CANX-5                  
1 40056U 14034D   24306.51393420  .00005423  00000+0  73967-3 0  9997
2 40056  98.3818 147.0202 0014340 110.3053 249.9699 14.79026880556879
UKUBE-1                 
1 40074U 14037F   24306.28351362  .00030917  00000+0  25982-2 0  9992
2 40074  98.3499 245.0597 0004431   7.7263 352.4025 14.98223839559276
BRITE-PL2 (HEWELIUSZ)   
1 40119U 14049B   24305.85348879  .00008597  00000+0  88558-3 0  9994
2 40119  97.8876  45.0592 0014170 274.6814  85.2785 14.90430400552925
AEROCUBE 5C             
1 40965U 15058B   24306.36078769  .00017567  00000+0  14904-2 0  9999
2 40965  64.7689 299.8862 0189813 267.1692  90.7681 14.85086344277384
AEROCUBE 7              
1 40966U 15058C   24306.24835549  .00021587  00000+0  17450-2 0  9990
2 40966  64.7656 292.5782 0183737 266.8716  91.1359 14.87490602277499
FOX-1A (AO-85)          
1 40967U 15058D   24306.40862565  .00017587  00000+0  15245-2 0  9992
2 40967  64.7765 314.1140 0188004 262.9169  95.0529 14.84530147 25344
SINOD-D 1               
1 40968U 15058E   24306.03778006  .00019049  00000+0  15697-2 0  9994
2 40968  64.7766 306.5496 0181095 262.0534  95.9991 14.87174108 28142
SNAP-3 ALICE            
1 40970U 15058G   24305.82655894  .00054205  00000+0  30889-2 0  9995
2 40970  64.7685 255.1028 0141982 260.2969  98.2089 15.04260420 26277
LMRST-SAT               
1 40971U 15058H   24306.45712723  .00017075  00000+0  14772-2 0  9998
2 40971  64.7765 309.5263 0189401 264.3087  93.6399 14.84443299 25351
SNAP-3 EDDIE            
1 40972U 15058J   24305.20300649  .00050033  00000+0  28177-2 0  9996
2 40972  64.7659 250.1952 0142345 261.3121  97.1852 15.04651150 28280
PROPCUBE 3              
1 40973U 15058K   24305.69601399  .00017244  00000+0  14239-2 0  9997
2 40973  64.7700 298.3165 0185527 265.9317  92.0570 14.86605464 26302
BISONSAT                
1 40974U 15058L   24306.38394102  .00041705  00000+0  27915-2 0  9990
2 40974  64.7662 264.9635 0160608 263.4464  94.8346 14.96698483 26259
SNAP-3 JIMI             
1 40975U 15058M   24306.26264810  .00029765  00000+0  22492-2 0  9997
2 40975  64.7679 282.2648 0175046 264.7872  93.3244 14.90834901 25435
PROPCUBE 1 (FLORA)      
1 40976U 15058N   24306.42638504  .00016747  00000+0  15064-2 0  9994
2 40976  64.7761 325.8228 0188250 265.6292  92.3288 14.83172938 28137
SINOD-D 3               
1 40977U 15058P   24306.41049538  .00022017  00000+0  18792-2 0  9995
2 40977  64.7742 317.6951 0181189 264.9017  93.1391 14.85826778 26390
HORYU-4                 
1 41340U 16012D   24305.92907624  .00040527  00000+0  16583-2 0  9997
2 41340  31.0003 160.5897 0009140 298.2552  61.7167 15.23101307478969
RAVAN                   
1 41849U 16067B   24306.50077654  .00035806  00000+0  16819-2 0  9993
2 41849  98.0613 132.7865 0010892 282.7315  77.2700 15.19475726436794
CELTEE 1                
1 41850U 16067C   24305.46289266  .00017488  00000+0  10853-2 0  9991
2 41850  98.1069 122.3524 0001887  89.9348 270.2096 15.09777542435967
